[Satellite]
VERSION=1.1
NAME=RESURS P2
NICKNAME=RESURS P2
TLE1=1 40360U 14087A   20158.15773552  .00000563  00000-0  19689-4 0  9995
TLE2=2 40360  97.2446 247.1754 0007972 217.1360 230.9304 15.33541763304581
STATUS=0
